{
  "norad_id": 59392,
  "name": "STARLINK-31626",
  "history": [
    {
      "epoch": "2026-03-28T12:04:13.918368Z",
      "apogee_km": 476.0933152525722,
      "perigee_km": 474.4389037419396,
      "latitude_deg": 3.291915942898992e-05,
      "longitude_deg": 161.16467638329553,
      "height_km": 475.8810620765612,
      "semi_major_axis_km": 6853.403109497255,
      "eccentricity": 0.0001207,
      "inclination_deg": 53.1607,
      "raan_deg": 168.1451,
      "arg_perigee_deg": 69.9664,
      "mean_anomaly_deg": 290.1467,
      "mean_motion_rev_day": 15.30182906
    }
  ]
}